H1 CPF 01  gfz 2021 09 03 00  7453 tandemx   
H2 1003001  6202 36605    2021 09 02 12 59 42 2021 09 07 00 00 42   120 1 1  0 0 0
H9
10 0 59462  19422.000000  0   -6492473.841   -794175.026   2153717.695
10 0 59462  19542.000000  0   -6174480.810   -575517.871   2991164.494
10 0 59462  19662.000000  0   -5744659.256   -353340.808   3775931.606
10 0 59462  19782.000000  0   -5210532.984   -133421.181   4494211.222
10 0 59462  19902.000000  0   -4581554.999     78652.652   5133379.902
10 0 59462  20022.000000  0   -3868930.625    277612.521   5682219.096
10 0 59462  20142.000000  0   -3085408.916    458631.945   6131109.581
10 0 59462  20262.000000  0   -2245045.960    617434.688   6472195.063
10 0 59462  20382.000000  0   -1362946.891    750388.730   6699514.245
10 0 59462  20502.000000  0    -454990.186    854584.689   6809098.741
10 0 59462  20622.000000  0     462458.713    927896.304   6799037.040
10 0 59462  20742.000000  0    1372841.365    969022.545   6669505.511
10 0 59462  20862.000000  0    2259704.076    977511.044   6422765.680
10 0 59462  20982.000000  0    3106994.540    953761.762   6063127.617
10 0 59462  21102.000000  0    3899354.222    899011.099   5596879.721
10 0 59462  21222.000000  0    4622399.719    815296.967   5032183.668
10 0 59462  21342.000000  0    5262989.017    705404.614   4378938.778
10 0 59462  21462.000000  0    5809469.922    572794.926   3648614.081
10 0 59462  21582.000000  0    6251902.407    421517.046   2854048.483
10 0 59462  21702.000000  0    6582248.365    256106.210   2009223.903
10 0 59462  21822.000000  0    6794527.369     81468.490   1129017.271
10 0 59462  21942.000000  0    6884932.281    -97242.748    228931.926
10 0 59462  22062.000000  0    6851901.787   -274757.199   -675183.385
10 0 59462  22182.000000  0    6696146.938   -445821.175  -1567423.171
10 0 59462  22302.000000  0    6420631.824   -605330.486  -2432113.464
10 0 59462  22422.000000  0    6030508.797   -748459.447  -3254093.562
10 0 59462  22542.000000  0    5533011.337   -870782.845  -4018985.346
10 0 59462  22662.000000  0    4937307.187   -968387.319  -4713444.796
10 0 59462  22782.000000  0    4254317.069  -1037969.509  -5325390.377
10 0 59462  22902.000000  0    3496504.145  -1076920.064  -5844206.191
10 0 59462  23022.000000  0    2677637.958  -1083391.800  -6260916.381
10 0 59462  23142.000000  0    1812539.501  -1056349.260  -6568328.945
10 0 59462  23262.000000  0     916812.239   -995599.974  -6761148.578
10 0 59462  23382.000000  0       6563.533   -901808.259  -6836058.643
10 0 59462  23502.000000  0    -901879.803   -776489.449  -6791771.540
10 0 59462  23622.000000  0   -1792257.149   -621986.009  -6629048.639
10 0 59462  23742.000000  0   -2648658.939   -441424.805  -6350688.128
10 0 59462  23862.000000  0   -3455804.012   -238657.100  -5961481.038
10 0 59462  23982.000000  0   -4199308.282    -18181.468  -5468139.007
10 0 59462  24102.000000  0   -4865942.252    214949.304  -4879189.243
10 0 59462  24222.000000  0   -5443870.010    455235.208  -4204839.034
10 0 59462  24342.000000  0   -5922868.456    696849.541  -3456810.364
10 0 59462  24462.000000  0   -6294519.628    933770.221  -2648144.366
10 0 59462  24582.000000  0   -6552371.394   1159918.803  -1792978.629
10 0 59462  24702.000000  0   -6692062.395   1369303.990   -906301.572
10 0 59462  24822.000000  0   -6711408.347   1556166.759     -3685.837
10 0 59462  24942.000000  0   -6610442.505   1715121.590    898992.313
10 0 59462  25062.000000  0   -6391412.903   1841292.331   1785839.397
10 0 59462  25182.000000  0   -6058735.440   1930438.517   2641233.672
10 0 59462  25302.000000  0   -5618902.768   1979068.242   3450109.367
10 0 59462  25422.000000  0   -5080351.008   1984534.133   4198229.250
10 0 59462  25542.000000  0   -4453288.997   1945110.869   4872438.680
10 0 59462  25662.000000  0   -3749495.692   1860052.607   5460896.996
10 0 59462  25782.000000  0   -2982091.082   1729629.336   5953283.615
10 0 59462  25902.000000  0   -2165283.764   1555141.598   6340976.262
10 0 59462  26022.000000  0   -1314100.656   1338912.224   6617196.180
10 0 59462  26142.000000  0    -444106.559   1084256.068   6777119.409
10 0 59462  26262.000000  0     428880.847    795428.987   6817954.896
10 0 59462  26382.000000  0    1289077.632    477556.268   6738990.036
10 0 59462  26502.000000  0    2121017.697    136542.146   6541602.278
10 0 59462  26622.000000  0    2909829.899   -221038.935   6229237.553
10 0 59462  26742.000000  0    3641505.248   -588067.857   5807354.783
10 0 59462  26862.000000  0    4303148.895   -957020.583   5283335.505
10 0 59462  26982.000000  0    4883212.185  -1320120.732   4666360.825
10 0 59462  27102.000000  0    5371701.562  -1669501.161   3967256.244
10 0 59462  27222.000000  0    5760359.842  -1997371.675   3198305.264
10 0 59462  27342.000000  0    6042814.938  -2296190.176   2373034.235
10 0 59462  27462.000000  0    6214691.807  -2558832.037   1505972.379
10 0 59462  27582.000000  0    6273686.084  -2778753.555    612391.622
10 0 59462  27702.000000  0    6219595.963  -2950146.090   -291970.260
10 0 59462  27822.000000  0    6054311.598  -3068076.116  -1191195.441
10 0 59462  27942.000000  0    5781761.225  -3128607.555  -2069476.172
10 0 59462  28062.000000  0    5407816.009  -3128903.050  -2911399.583
10 0 59462  28182.000000  0    4940158.373  -3067302.296  -3702222.988
10 0 59462  28302.000000  0    4388116.155  -2943376.200  -4428133.372
10 0 59462  28422.000000  0    3762467.495  -2757955.714  -5076487.122
10 0 59462  28542.000000  0    3075220.833  -2513133.935  -5636023.864
10 0 59462  28662.000000  0    2339378.623  -2212243.485  -6097051.560
10 0 59462  28782.000000  0    1568689.341  -1859810.680  -6451604.521
10 0 59462  28902.000000  0     777389.320  -1461485.002  -6693571.225
10 0 59462  29022.000000  0     -20058.321  -1023947.134  -6818788.474
10 0 59462  29142.000000  0    -809223.136   -554797.742  -6825104.613
10 0 59462  29262.000000  0   -1575962.074    -62428.236  -6712412.227
10 0 59462  29382.000000  0   -2306667.314    444125.861  -6482649.154
10 0 59462  29502.000000  0   -2988501.902    955346.024  -6139768.244
10 0 59462  29622.000000  0   -3609621.216   1461404.697  -5689677.308
10 0 59462  29742.000000  0   -4159379.079   1952349.653  -5140148.636
10 0 59462  29862.000000  0   -4628514.336   2418297.028  -4500696.544
10 0 59462  29982.000000  0   -5009313.087   2849629.205  -3782422.771
10 0 59462  30102.000000  0   -5295743.265   3237192.018  -2997833.209
10 0 59462  30222.000000  0   -5483560.187   3572489.387  -2160627.527
10 0 59462  30342.000000  0   -5570378.015   3847870.270  -1285462.841
10 0 59462  30462.000000  0   -5555705.695   4056702.027   -387695.851
10 0 59462  30582.000000  0   -5440945.142   4193526.505    516891.194
10 0 59462  30702.000000  0   -5229351.123   4254194.440   1412376.558
10 0 59462  30822.000000  0   -4925951.846   4235972.671   2282988.781
10 0 59462  30942.000000  0   -4537434.104   4137622.892   3113392.729
10 0 59462  31062.000000  0   -4071996.056   3959450.930   3888967.278
10 0 59462  31182.000000  0   -3539170.994   3703322.927   4596068.047
10 0 59462  31302.000000  0   -2949627.569   3372650.035   5222269.751
10 0 59462  31422.000000  0   -2314950.356   2972341.628   5756584.059
10 0 59462  31542.000000  0   -1647406.983   2508728.884   6189649.243
10 0 59462  31662.000000  0    -959706.205   1989460.076   6513888.759
10 0 59462  31782.000000  0    -264754.173   1423370.517   6723635.814
10 0 59462  31902.000000  0     424587.278    820330.148   6815227.325
10 0 59462  32022.000000  0    1095738.442    191070.644   6787063.519
10 0 59462  32142.000000  0    1736630.104   -453004.818   6639634.183
10 0 59462  32262.000000  0    2335919.888  -1100027.692   6375511.445
10 0 59462  32382.000000  0    2883193.207  -1737881.941   5999308.224
10 0 59462  32502.000000  0    3369146.862  -2354431.005   5517603.290
10 0 59462  32622.000000  0    3785750.675  -2937749.754   4938831.645
10 0 59462  32742.000000  0    4126384.776  -3476357.388   4273142.830
10 0 59462  32862.000000  0    4385949.795  -3959447.236   3532227.296
10 0 59462  32982.000000  0    4560947.581  -4377108.232   2729113.343
10 0 59462  33102.000000  0    4649530.624  -4720532.667   1877936.922
10 0 59462  33222.000000  0    4651517.503  -4982204.437    993688.567
10 0 59462  33342.000000  0    4568373.933  -5156064.027     91942.971
10 0 59462  33462.000000  0    4403159.996  -5237644.901   -811422.962
10 0 59462  33582.000000  0    4160446.467  -5224179.005  -1700518.559
10 0 59462  33702.000000  0    3846199.265  -5114667.082  -2559727.635
10 0 59462  33822.000000  0    3467637.356  -4909913.033  -3373989.011
10 0 59462  33942.000000  0    3033067.350  -4612521.467  -4129063.828
10 0 59462  34062.000000  0    2551699.666  -4226860.463  -4811784.442
10 0 59462  34182.000000  0    2033450.678  -3758988.758  -5410279.965
10 0 59462  34302.000000  0    1488737.155  -3216551.647  -5914173.300
10 0 59462  34422.000000  0     928267.275  -2608650.192  -6314750.672
10 0 59462  34542.000000  0     362831.129  -1945684.160  -6605102.030
10 0 59462  34662.000000  0    -196904.454  -1239171.364  -6780229.362
10 0 59462  34782.000000  0    -740592.259   -501547.977  -6837123.007
10 0 59462  34902.000000  0   -1258390.686    254046.702  -6774807.157
10 0 59462  35022.000000  0   -1741137.846   1013998.330  -6594354.019
10 0 59462  35142.000000  0   -2180509.728   1764456.567  -6298867.294
10 0 59462  35262.000000  0   -2569160.971   2491581.038  -5893434.831
10 0 59462  35382.000000  0   -2900847.702   3181792.414  -5385051.126
10 0 59462  35502.000000  0   -3170529.408   3822024.771  -4782508.342
10 0 59462  35622.000000  0   -3374449.254   4399975.045  -4096255.625
10 0 59462  35742.000000  0   -3510188.988   4904343.683  -3338226.653
10 0 59462  35862.000000  0   -3576696.903   5325060.516  -2521639.675
99
